{
  "type": "FeatureCollection",
  "features": [
    {
      "type": "Feature",
      "properties": {
        "norad_id": 38091,
        "name": "BEIDOU-2 G5 (C05)",
        "group": "gnss",
        "lat": 2.7762709522918203,
        "lon": 132.01044283780604,
        "alt_km": 35841.15687650406,
        "timestamp": "2025-12-27T22:26:48.848853+00:00",
        "meta_object_name": "BEIDOU-2 G5 (C05)",
        "meta_object_id": "2012-008A",
        "meta_epoch": "2025-12-27T11:34:13.542816",
        "meta_mean_motion": 1.00270288,
        "meta_eccentricity": 0.001321,
        "meta_inclination": 3.1436,
        "meta_ra_of_asc_node": 70.6546,
        "meta_arg_of_pericenter": 232.0727,
        "meta_mean_anomaly": 25.7584,
        "meta_ephemeris_type": 0,
        "meta_classification_type": "U",
        "meta_norad_cat_id": 38091,
        "meta_element_set_no": 999,
        "meta_rev_at_epoch": 5064,
        "meta_bstar": 0,
        "meta_mean_motion_dot": 7.8e-07,
        "meta_mean_motion_ddot": 0,
        "tle_line1": "1 38091U 12008A   25361.48210119  .00000078  00000+0  00000+0 0  9998",
        "tle_line2": "2 38091   3.1436  70.6546 0013210 232.0727  25.7584  1.00270288 50642"
      },
      "geometry": {
        "type": "Point",
        "coordinates": [
          132.01044283780604,
          2.7762709522918203
        ]
      }
    },
    {
      "type": "Feature",
      "properties": {
        "norad_id": 38250,
        "name": "BEIDOU-2 M3 (C11)",
        "group": "gnss",
        "lat": 19.926816448677677,
        "lon": -35.16924862274837,
        "alt_km": 21547.1601664161,
        "timestamp": "2025-12-27T22:26:48.848871+00:00",
        "meta_object_name": "BEIDOU-2 M3 (C11)",
        "meta_object_id": "2012-018A",
        "meta_epoch": "2025-12-26T06:54:56.796768",
        "meta_mean_motion": 1.86230094,
        "meta_eccentricity": 0.002406,
        "meta_inclination": 55.9085,
        "meta_ra_of_asc_node": 310.7027,
        "meta_arg_of_pericenter": 275.5278,
        "meta_mean_anomaly": 84.2034,
        "meta_ephemeris_type": 0,
        "meta_classification_type": "U",
        "meta_norad_cat_id": 38250,
        "meta_element_set_no": 999,
        "meta_rev_at_epoch": 9272,
        "meta_bstar": 0,
        "meta_mean_motion_dot": -5.6e-07,
        "meta_mean_motion_ddot": 0,
        "tle_line1": "1 38250U 12018A   25360.28815737 -.00000056  00000+0  00000+0 0  9997",
        "tle_line2": "2 38250  55.9085 310.7027 0024060 275.5278  84.2034  1.86230094 92724"
      },
      "geometry": {
        "type": "Point",
        "coordinates": [
          -35.16924862274837,
          19.926816448677677
        ]
      }
    },
    {
      "type": "Feature",
      "properties": {
        "norad_id": 38251,
        "name": "BEIDOU-2 M4 (C12)",
        "group": "gnss",
        "lat": 50.9201834760614,
        "lon": 6.613004592612279,
        "alt_km": 21558.816461867307,
        "timestamp": "2025-12-27T22:26:48.848883+00:00",
        "meta_object_name": "BEIDOU-2 M4 (C12)",
        "meta_object_id": "2012-018B",
        "meta_epoch": "2025-12-26T05:17:08.086272",
        "meta_mean_motion": 1.86229697,
        "meta_eccentricity": 0.0015168,
        "meta_inclination": 55.8099,
        "meta_ra_of_asc_node": 309.9329,
        "meta_arg_of_pericenter": 279.7877,
        "meta_mean_anomaly": 80.0472,
        "meta_ephemeris_type": 0,
        "meta_classification_type": "U",
        "meta_norad_cat_id": 38251,
        "meta_element_set_no": 999,
        "meta_rev_at_epoch": 9272,
        "meta_bstar": 0,
        "meta_mean_motion_dot": -5.5e-07,
        "meta_mean_motion_ddot": 0,
        "tle_line1": "1 38251U 12018B   25360.22023248 -.00000055  00000+0  00000+0 0  9999",
        "tle_line2": "2 38251  55.8099 309.9329 0015168 279.7877  80.0472  1.86229697 92721"
      },
      "geometry": {
        "type": "Point",
        "coordinates": [
          6.613004592612279,
          50.9201834760614
        ]
      }
    },
    {
      "type": "Feature",
      "properties": {
        "norad_id": 38652,
        "name": "SES-5 (EGNOS/PRN 136)",
        "group": "gnss",
        "lat": 0.05665173845884799,
        "lon": 78.37820668559002,
        "alt_km": 35792.957236390386,
        "timestamp": "2025-12-27T22:26:48.848895+00:00",
        "meta_object_name": "SES-5 (EGNOS/PRN 136)",
        "meta_object_id": "2012-036A",
        "meta_epoch": "2025-12-27T06:13:38.544096",
        "meta_mean_motion": 1.00281278,
        "meta_eccentricity": 0.0002452,
        "meta_inclination": 0.0588,
        "meta_ra_of_asc_node": 304.2411,
        "meta_arg_of_pericenter": 336.6829,
        "meta_mean_anomaly": 273.4683,
        "meta_ephemeris_type": 0,
        "meta_classification_type": "U",
        "meta_norad_cat_id": 38652,
        "meta_element_set_no": 999,
        "meta_rev_at_epoch": 4273,
        "meta_bstar": 0,
        "meta_mean_motion_dot": 5.8e-07,
        "meta_mean_motion_ddot": 0,
        "tle_line1": "1 38652U 12036A   25361.25947389  .00000058  00000+0  00000+0 0  9991",
        "tle_line2": "2 38652   0.0588 304.2411 0002452 336.6829 273.4683  1.00281278 42730"
      },
      "geometry": {
        "type": "Point",
        "coordinates": [
          78.37820668559002,
          0.05665173845884799
        ]
      }
    },
    {
      "type": "Feature",
      "properties": {
        "norad_id": 38775,
        "name": "BEIDOU-2 M6 (C14)",
        "group": "gnss",
        "lat": -55.870613367270956,
        "lon": -32.89782505189154,
        "alt_km": 21528.295465264244,
        "timestamp": "2025-12-27T22:26:48.848909+00:00",
        "meta_object_name": "BEIDOU-2 M6 (C14)",
        "meta_object_id": "2012-050B",
        "meta_epoch": "2025-12-24T07:41:05.368128",
        "meta_mean_motion": 1.86230801,
        "meta_eccentricity": 0.00114872,
        "meta_inclination": 56.388,
        "meta_ra_of_asc_node": 68.6832,
        "meta_arg_of_pericenter": 343.1884,
        "meta_mean_anomaly": 16.8281,
        "meta_ephemeris_type": 0,
        "meta_classification_type": "U",
        "meta_norad_cat_id": 38775,
        "meta_element_set_no": 999,
        "meta_rev_at_epoch": 9005,
        "meta_bstar": 0,
        "meta_mean_motion_dot": -2.4e-07,
        "meta_mean_motion_ddot": 0,
        "tle_line1": "1 38775U 12050B   25358.32020102 -.00000024  00000+0  00000+0 0  9996",
        "tle_line2": "2 38775  56.3880  68.6832 0011487 343.1884  16.8281  1.86230801 90056"
      },
      "geometry": {
        "type": "Point",
        "coordinates": [
          -32.89782505189154,
          -55.870613367270956
        ]
      }
    },
    {
      "type": "Feature",
      "properties": {
        "norad_id": 38779,
        "name": "GSAT-10 (GAGAN/PRN 128)",
        "group": "gnss",
        "lat": -0.04062287609374783,
        "lon": 156.39132907421447,
        "alt_km": 35779.41891757784,
        "timestamp": "2025-12-27T22:26:48.848921+00:00",
        "meta_object_name": "GSAT-10 (GAGAN/PRN 128)",
        "meta_object_id": "2012-051B",
        "meta_epoch": "2025-12-26T17:34:19.233984",
        "meta_mean_motion": 1.00270579,
        "meta_eccentricity": 0.00020538,
        "meta_inclination": 0.0583,
        "meta_ra_of_asc_node": 261.5664,
        "meta_arg_of_pericenter": 219.4554,
        "meta_mean_anomaly": 321.0592,
        "meta_ephemeris_type": 0,
        "meta_classification_type": "U",
        "meta_norad_cat_id": 38779,
        "meta_element_set_no": 999,
        "meta_rev_at_epoch": 4836,
        "meta_bstar": 0,
        "meta_mean_motion_dot": -1.43e-06,
        "meta_mean_motion_ddot": 0,
        "tle_line1": "1 38779U 12051B   25360.73216706 -.00000143  00000+0  00000+0 0  9998",
        "tle_line2": "2 38779   0.0583 261.5664 0002053 219.4554 321.0592  1.00270579 48366"
      },
      "geometry": {
        "type": "Point",
        "coordinates": [
          156.39132907421447,
          -0.04062287609374783
        ]
      }
    },
    {
      "type": "Feature",
      "properties": {
        "norad_id": 38833,
        "name": "GPS BIIF-3  (PRN 24)",
        "group": "gnss",
        "lat": 53.306262470171944,
        "lon": -111.81803578708703,
        "alt_km": 19770.048668174524,
        "timestamp": "2025-12-27T22:26:48.848932+00:00",
        "meta_object_name": "GPS BIIF-3  (PRN 24)",
        "meta_object_id": "2012-053A",
        "meta_epoch": "2025-12-26T07:30:08.502624",
        "meta_mean_motion": 2.00565043,
        "meta_eccentricity": 0.0176105,
        "meta_inclination": 53.56,
        "meta_ra_of_asc_node": 150.6829,
        "meta_arg_of_pericenter": 64.189,
        "meta_mean_anomaly": 297.6002,
        "meta_ephemeris_type": 0,
        "meta_classification_type": "U",
        "meta_norad_cat_id": 38833,
        "meta_element_set_no": 999,
        "meta_rev_at_epoch": 9597,
        "meta_bstar": 0,
        "meta_mean_motion_dot": 9.8e-07,
        "meta_mean_motion_ddot": 0,
        "tle_line1": "1 38833U 12053A   25360.31259841  .00000098  00000+0  00000+0 0  9990",
        "tle_line2": "2 38833  53.5600 150.6829 0176105  64.1890 297.6002  2.00565043 95976"
      },
      "geometry": {
        "type": "Point",
        "coordinates": [
          -111.81803578708703,
          53.306262470171944
        ]
      }
    }
  ]
}